{
    "links": {
        "self": "http://www.neowsapp.com/rest/v1/neo/3789545?api_key=iIulBulltgU6a56xZRHN4H3l9WmuAYTsLGpBGhQ2"
    },
    "id": "3789545",
    "neo_reference_id": "3789545",
    "name": "(2017 WM2)",
    "designation": "2017 WM2",
    "nasa_jpl_url": "http://ssd.jpl.nasa.gov/sbdb.cgi?sstr=3789545",
    "absolute_magnitude_h": 23.2,
    "estimated_diameter": {
        "kilometers": {
            "estimated_diameter_min": 0.0608912622,
            "estimated_diameter_max": 0.1361570015
        },
        "meters": {
            "estimated_diameter_min": 60.8912622106,
            "estimated_diameter_max": 136.1570015386
        },
        "miles": {
            "estimated_diameter_min": 0.0378360645,
            "estimated_diameter_max": 0.0846040122
        },
        "feet": {
            "estimated_diameter_min": 199.7744887109,
            "estimated_diameter_max": 446.7093369279
        }
    },
    "is_potentially_hazardous_asteroid": false,
    "close_approach_data": [
        {
            "close_approach_date": "2017-11-02",
            "close_approach_date_full": "2017-Nov-02 08:43",
            "epoch_date_close_approach": 1509612180000,
            "relative_velocity": {
                "kilometers_per_second": "8.5413813542",
                "kilometers_per_hour": "30748.9728751488",
                "miles_per_hour": "19106.2159512279"
            },
            "miss_distance": {
                "astronomical": "0.1763886759",
                "lunar": "68.6151949251",
                "kilometers": "26387370.206760333",
                "miles": "16396351.5375572754"
            },
            "orbiting_body": "Earth"
        }
    ],
    "orbital_data": {
        "orbit_id": "5",
        "orbit_determination_date": "2017-12-10 06:27:24",
        "first_observation_date": "2017-11-19",
        "last_observation_date": "2017-12-09",
        "data_arc_in_days": 20,
        "observations_used": 27,
        "orbit_uncertainty": "9",
        "minimum_orbit_intersection": ".0972273",
        "jupiter_tisserand_invariant": "3.286",
        "epoch_osculation": "2458078.5",
        "eccentricity": ".5491285789506616",
        "semi_major_axis": "2.426489003502901",
        "inclination": ".612381301476006",
        "ascending_node_longitude": "125.0379033550718",
        "orbital_period": "1380.593798080368",
        "perihelion_distance": "1.094034545169946",
        "perihelion_argument": "258.0756590986576",
        "aphelion_distance": "3.758943461835856",
        "perihelion_time": "2458051.370262825994",
        "mean_anomaly": "7.074278760503034",
        "mean_motion": ".2607573643316073",
        "equinox": "J2000",
        "orbit_class": {
            "orbit_class_type": "AMO",
            "orbit_class_description": "Near-Earth asteroid orbits similar to that of 1221 Amor",
            "orbit_class_range": "1.017 AU < q (perihelion) < 1.3 AU"
        }
    },
    "is_sentry_object": false
}